[{"OBJECT_NAME":"STARLINK-35264","OBJECT_ID":"2025-224U","EPOCH":"2026-03-09T06:22:11.199360","MEAN_MOTION":15.30192029,"ECCENTRICITY":0.00012438,"INCLINATION":53.1603,"RA_OF_ASC_NODE":13.0061,"ARG_OF_PERICENTER":64.3975,"MEAN_ANOMALY":295.7154,"EPHEMERIS_TYPE":0,"CLASSIFICATION_TYPE":"U","NORAD_CAT_ID":65900,"ELEMENT_SET_NO":999,"REV_AT_EPOCH":2480,"BSTAR":0.001342141,"MEAN_MOTION_DOT":0.00039593,"MEAN_MOTION_DDOT":0},{"OBJECT_NAME":"OBJECT N","OBJECT_ID":"2019-093N","EPOCH":"2026-03-09T21:41:56.087232","MEAN_MOTION":15.29897693,"ECCENTRICITY":0.0006278,"INCLINATION":98.0505,"RA_OF_ASC_NODE":226.9456,"ARG_OF_PERICENTER":33.3806,"MEAN_ANOMALY":326.7828,"EPHEMERIS_TYPE":0,"CLASSIFICATION_TYPE":"U","NORAD_CAT_ID":44891,"ELEMENT_SET_NO":999,"REV_AT_EPOCH":33957,"BSTAR":0.0010567776,"MEAN_MOTION_DOT":0.00030617,"MEAN_MOTION_DDOT":0}]
